[
    {
        "Altitude(m)": 605459.0476835216,
        "Argument of Periapsis(deg)": 0.0,
        "Eccentricity": 0.0,
        "Inclination(deg)": 60.0,
        "Latitude(deg)": 27.98827532186571,
        "Longitude(deg)": 162.7986334354433,
        "Mean Anomaly(deg)": 32.72730000000001,
        "RAAN(deg)": 245.0,
        "Satellite Name": "Test1 1080",
        "Satellite Number": 1080,
        "Semi-Major Axis(m)": 6980739.136638005,
        "Time(s)": 0
    },
    {
        "Altitude(m)": 605535.8387486532,
        "Argument of Periapsis(deg)": 0.00010418945913296404,
        "Eccentricity": 0.0,
        "Inclination(deg)": 60.0,
        "Latitude(deg)": 28.501404248265477,
        "Longitude(deg)": 163.15557977412584,
        "Mean Anomaly(deg)": 33.34740614546182,
        "RAAN(deg)": 244.99957995086027,
        "Satellite Name": "Test1 1080",
        "Satellite Number": 1080,
        "Semi-Major Axis(m)": 6980739.136638005,
        "Time(s)": 10
    },
    {
        "Altitude(m)": 605614.3204180867,
        "Argument of Periapsis(deg)": 0.0002083789182659281,
        "Eccentricity": 0.0,
        "Inclination(deg)": 60.0,
        "Latitude(deg)": 29.013315641733502,
        "Longitude(deg)": 163.516390968824,
        "Mean Anomaly(deg)": 33.967512290923665,
        "RAAN(deg)": 244.9991599017205,
        "Satellite Name": "Test1 1080",
        "Satellite Number": 1080,
        "Semi-Major Axis(m)": 6980739.136638005,
        "Time(s)": 20
    },
    {
        "Altitude(m)": 605694.4349996689,
        "Argument of Periapsis(deg)": 0.00031256837739889213,
        "Eccentricity": 0.0,
        "Inclination(deg)": 60.0,
        "Latitude(deg)": 29.52397222909702,
        "Longitude(deg)": 163.8811787758429,
        "Mean Anomaly(deg)": 34.58761843638547,
        "RAAN(deg)": 244.9987398525808,
        "Satellite Name": "Test1 1080",
        "Satellite Number": 1080,
        "Semi-Major Axis(m)": 6980739.136638005,
        "Time(s)": 30
    },
    {
        "Altitude(m)": 605776.1241918816,
        "Argument of Periapsis(deg)": 0.0004167578365318562,
        "Eccentricity": 0.0,
        "Inclination(deg)": 60.0,
        "Latitude(deg)": 30.03333574070286,
        "Longitude(deg)": 164.25005795779546,
        "Mean Anomaly(deg)": 35.20772458184732,
        "RAAN(deg)": 244.99831980344103,
        "Satellite Name": "Test1 1080",
        "Satellite Number": 1080,
        "Semi-Major Axis(m)": 6980739.136638005,
        "Time(s)": 40
    },
    {
        "Altitude(m)": 605859.3291142178,
        "Argument of Periapsis(deg)": 0.0005209472956648203,
        "Eccentricity": 0.0,
        "Inclination(deg)": 60.0,
        "Latitude(deg)": 30.541366871683966,
        "Longitude(deg)": 164.6231453424173,
        "Mean Anomaly(deg)": 35.82783072730918,
        "RAAN(deg)": 244.9978997543013,
        "Satellite Name": "Test1 1080",
        "Satellite Number": 1080,
        "Semi-Major Axis(m)": 6980739.136638005,
        "Time(s)": 50
    },
    {
        "Altitude(m)": 605943.9903377405,
        "Argument of Periapsis(deg)": 0.0006251367547977843,
        "Eccentricity": 0.0,
        "Inclination(deg)": 60.0,
        "Latitude(deg)": 31.04802524186643,
        "Longitude(deg)": 165.0005603944298,
        "Mean Anomaly(deg)": 36.447936872770974,
        "RAAN(deg)": 244.99747970516154,
        "Satellite Name": "Test1 1080",
        "Satellite Number": 1080,
        "Semi-Major Axis(m)": 6980739.136638005,
        "Time(s)": 60
    },
    {
        "Altitude(m)": 606030.0479159127,
        "Argument of Periapsis(deg)": 0.0007293262139307483,
        "Eccentricity": 0.0,
        "Inclination(deg)": 60.0,
        "Latitude(deg)": 31.553269354277415,
        "Longitude(deg)": 165.38242578741443,
        "Mean Anomaly(deg)": 37.06804301823283,
        "RAAN(deg)": 244.99705965602183,
        "Satellite Name": "Test1 1080",
        "Satellite Number": 1080,
        "Semi-Major Axis(m)": 6980739.136638005,
        "Time(s)": 70
    },
    {
        "Altitude(m)": 606117.4414155701,
        "Argument of Periapsis(deg)": 0.0008335156730637124,
        "Eccentricity": 0.0,
        "Inclination(deg)": 60.0,
        "Latitude(deg)": 32.057056552217176,
        "Longitude(deg)": 165.76886646264032,
        "Mean Anomaly(deg)": 37.68814916369463,
        "RAAN(deg)": 244.99663960688207,
        "Satellite Name": "Test1 1080",
        "Satellite Number": 1080,
        "Semi-Major Axis(m)": 6980739.136638005,
        "Time(s)": 80
    },
    {
        "Altitude(m)": 606206.1099481448,
        "Argument of Periapsis(deg)": 0.0009377051321966765,
        "Eccentricity": 0.0,
        "Inclination(deg)": 60.0,
        "Latitude(deg)": 32.55934297485062,
        "Longitude(deg)": 166.16001020038425,
        "Mean Anomaly(deg)": 38.308255309156486,
        "RAAN(deg)": 244.99621955774234,
        "Satellite Name": "Test1 1080",
        "Satellite Number": 1080,
        "Semi-Major Axis(m)": 6980739.136638005,
        "Time(s)": 90
    },
    {
        "Altitude(m)": 606295.9922009937,
        "Argument of Periapsis(deg)": 0.0010418945913296407,
        "Eccentricity": 0.0,
        "Inclination(deg)": 60.0,
        "Latitude(deg)": 33.060083511281974,
        "Longitude(deg)": 166.55598819063633,
        "Mean Anomaly(deg)": 38.92836145461828,
        "RAAN(deg)": 244.99579950860257,
        "Satellite Name": "Test1 1080",
        "Satellite Number": 1080,
        "Semi-Major Axis(m)": 6980739.136638005,
        "Time(s)": 100
    },
    {
        "Altitude(m)": 606387.0264689417,
        "Argument of Periapsis(deg)": 0.0011460840504626045,
        "Eccentricity": 0.0,
        "Inclination(deg)": 60.0,
        "Latitude(deg)": 33.55923175307854,
        "Longitude(deg)": 166.95693409005474,
        "Mean Anomaly(deg)": 39.54846760008014,
        "RAAN(deg)": 244.99537945946287,
        "Satellite Name": "Test1 1080",
        "Satellite Number": 1080,
        "Semi-Major Axis(m)": 6980739.136638005,
        "Time(s)": 110
    },
    {
        "Altitude(m)": 606479.1506859256,
        "Argument of Periapsis(deg)": 0.0012502735095955685,
        "Eccentricity": 0.0,
        "Inclination(deg)": 60.0,
        "Latitude(deg)": 34.056739945202075,
        "Longitude(deg)": 167.36298459062488,
        "Mean Anomaly(deg)": 40.16857374554194,
        "RAAN(deg)": 244.9949594103231,
        "Satellite Name": "Test1 1080",
        "Satellite Number": 1080,
        "Semi-Major Axis(m)": 6980739.136638005,
        "Time(s)": 120
    },
    {
        "Altitude(m)": 606572.302456772,
        "Argument of Periapsis(deg)": 0.0013544629687285324,
        "Eccentricity": 0.0,
        "Inclination(deg)": 60.0,
        "Latitude(deg)": 34.55255893531757,
        "Longitude(deg)": 167.77427998682563,
        "Mean Anomaly(deg)": 40.788679891003795,
        "RAAN(deg)": 244.99453936118337,
        "Satellite Name": "Test1 1080",
        "Satellite Number": 1080,
        "Semi-Major Axis(m)": 6980739.136638005,
        "Time(s)": 130
    },
    {
        "Altitude(m)": 606666.4190890891,
        "Argument of Periapsis(deg)": 0.0014586524278614966,
        "Eccentricity": 0.0,
        "Inclination(deg)": 60.0,
        "Latitude(deg)": 35.04663812145013,
        "Longitude(deg)": 168.19096322806308,
        "Mean Anomaly(deg)": 41.40878603646564,
        "RAAN(deg)": 244.9941193120436,
        "Satellite Name": "Test1 1080",
        "Satellite Number": 1080,
        "Semi-Major Axis(m)": 6980739.136638005,
        "Time(s)": 140
    },
    {
        "Altitude(m)": 606761.437625225,
        "Argument of Periapsis(deg)": 0.0015628418869944607,
        "Eccentricity": 0.0,
        "Inclination(deg)": 60.0,
        "Latitude(deg)": 35.53892539795758,
        "Longitude(deg)": 168.61318048172214,
        "Mean Anomaly(deg)": 42.02889218192745,
        "RAAN(deg)": 244.9936992629039,
        "Satellite Name": "Test1 1080",
        "Satellite Number": 1080,
        "Semi-Major Axis(m)": 6980739.136638005,
        "Time(s)": 150
    },
    {
        "Altitude(m)": 606857.294874345,
        "Argument of Periapsis(deg)": 0.0016670313461274247,
        "Eccentricity": 0.0,
        "Inclination(deg)": 60.0,
        "Latitude(deg)": 36.029367099796346,
        "Longitude(deg)": 169.0410816935152,
        "Mean Anomaly(deg)": 42.6489983273893,
        "RAAN(deg)": 244.99327921376414,
        "Satellite Name": "Test1 1080",
        "Satellite Number": 1080,
        "Semi-Major Axis(m)": 6980739.136638005,
        "Time(s)": 160
    },
    {
        "Altitude(m)": 606953.9274445354,
        "Argument of Periapsis(deg)": 0.0017712208052603888,
        "Eccentricity": 0.0,
        "Inclination(deg)": 60.0,
        "Latitude(deg)": 36.51790794506301,
        "Longitude(deg)": 169.47481963176534,
        "Mean Anomaly(deg)": 43.269104472851105,
        "RAAN(deg)": 244.9928591646244,
        "Satellite Name": "Test1 1080",
        "Satellite Number": 1080,
        "Semi-Major Axis(m)": 6980739.136638005,
        "Time(s)": 170
    },
    {
        "Altitude(m)": 607051.2717749435,
        "Argument of Periapsis(deg)": 0.001875410264393353,
        "Eccentricity": 0.0,
        "Inclination(deg)": 60.0,
        "Latitude(deg)": 37.00449097579196,
        "Longitude(deg)": 169.91455044083128,
        "Mean Anomaly(deg)": 43.88921061831296,
        "RAAN(deg)": 244.99243911548464,
        "Satellite Name": "Test1 1080",
        "Satellite Number": 1080,
        "Semi-Major Axis(m)": 6980739.136638005,
        "Time(s)": 180
    },
    {
        "Altitude(m)": 607149.264167976,
        "Argument of Periapsis(deg)": 0.0019795997235263173,
        "Eccentricity": 0.0,
        "Inclination(deg)": 60.0,
        "Latitude(deg)": 37.489057497000864,
        "Longitude(deg)": 170.36043419020515,
        "Mean Anomaly(deg)": 44.50931676377476,
        "RAAN(deg)": 244.99201906634494,
        "Satellite Name": "Test1 1080",
        "Satellite Number": 1080,
        "Semi-Major Axis(m)": 6980739.136638005,
        "Time(s)": 190
    }
]